start=new Date('2021-10-27T00:00:00.000Z').valueOf();
sats=[{"PERIAPSIS":"357.521","EPHEMERIS_TYPE":"0","GP_ID":"188200661","ARG_OF_PERICENTER":"299.9176","OBJECT_ID":"2021-082AV","NORAD_CAT_ID":"49173","LAUNCH_DATE":"2021-09-14","RCS_SIZE":"LARGE","TIME_SYSTEM":"UTC","REF_FRAME":"TEME","PERIOD":"91.738","MEAN_MOTION_DOT":"0.00062293","MEAN_MOTION":"15.69689116","COUNTRY_CODE":"US","DECAY_DATE":null,"OBJECT_TYPE":"PAYLOAD","CENTER_NAME":"EARTH","TLE_LINE1":"1 49173U 21082AV  21299.58337963  .00062293  00000-0  52102-3 0  9999","BSTAR":"0.00052102000000","SEMIMAJOR_AXIS":"6737.924","REV_AT_EPOCH":"366","FILE":"3184921","MEAN_MOTION_DDOT":"0.0000000000000","INCLINATION":"69.9999","APOAPSIS":"362.056","ELEMENT_SET_NO":"999","TLE_LINE2":"2 49173  69.9999   7.1421 0003365 299.9176 145.5607 15.69689116  3667","OBJECT_NAME":"STARLINK-3045","SITE":"AFWTR","MEAN_ELEMENT_THEORY":"SGP4","ECCENTRICITY":"0.00033650","CLASSIFICATION_TYPE":"U","EPOCH":"2021-10-26T14:00:04.000032","MEAN_ANOMALY":"145.5607","RA_OF_ASC_NODE":"7.1421"},{"EPOCH":"2021-10-26T14:00:04.000032","CLASSIFICATION_TYPE":"U","ECCENTRICITY":"0.00036900","SITE":"AFWTR","MEAN_ELEMENT_THEORY":"SGP4","OBJECT_NAME":"STARLINK-3047","TLE_LINE2":"2 49174  70.0010   7.4574 0003690 292.6997 242.0600 15.69724046  3667","RA_OF_ASC_NODE":"7.4574","MEAN_ANOMALY":"242.0600","BSTAR":"0.00050444000000","SEMIMAJOR_AXIS":"6737.824","TLE_LINE1":"1 49174U 21082AW  21299.58337963  .00060381  00000-0  50444-3 0  9993","CENTER_NAME":"EARTH","OBJECT_TYPE":"PAYLOAD","COUNTRY_CODE":"US","DECAY_DATE":null,"ELEMENT_SET_NO":"999","APOAPSIS":"362.175","FILE":"3184921","REV_AT_EPOCH":"366","MEAN_MOTION_DDOT":"0.0000000000000","INCLINATION":"70.0010","RCS_SIZE":"LARGE","TIME_SYSTEM":"UTC","LAUNCH_DATE":"2021-09-14","MEAN_MOTION":"15.69724046","MEAN_MOTION_DOT":"0.00060381","REF_FRAME":"TEME","PERIOD":"91.736","EPHEMERIS_TYPE":"0","PERIAPSIS":"357.202","ARG_OF_PERICENTER":"292.6997","OBJECT_ID":"2021-082AW","NORAD_CAT_ID":"49174","GP_ID":"188201107"},{"MEAN_ANOMALY":"248.0904","RA_OF_ASC_NODE":"7.4496","TLE_LINE2":"2 49175  70.0007   7.4496 0003836 293.1091 248.0904 15.69693078  3663","OBJECT_NAME":"STARLINK-3087","SITE":"AFWTR","MEAN_ELEMENT_THEORY":"SGP4","CLASSIFICATION_TYPE":"U","EPOCH":"2021-10-26T14:00:04.000032","ECCENTRICITY":"0.00038360","REV_AT_EPOCH":"366","FILE":"3184921","MEAN_MOTION_DDOT":"0.0000000000000","INCLINATION":"70.0007","APOAPSIS":"362.362","ELEMENT_SET_NO":"999","DECAY_DATE":null,"COUNTRY_CODE":"US","OBJECT_TYPE":"PAYLOAD","CENTER_NAME":"EARTH","TLE_LINE1":"1 49175U 21082AX  21299.58337963  .00061249  00000-0  51225-3 0  9996","SEMIMAJOR_AXIS":"6737.912","BSTAR":"0.00051225000000","PERIOD":"91.738","REF_FRAME":"TEME","MEAN_MOTION_DOT":"0.00061249","MEAN_MOTION":"15.69693078","LAUNCH_DATE":"2021-09-14","RCS_SIZE":"LARGE","TIME_SYSTEM":"UTC","GP_ID":"188201437","ARG_OF_PERICENTER":"293.1091","NORAD_CAT_ID":"49175","OBJECT_ID":"2021-082AX","PERIAPSIS":"357.193","EPHEMERIS_TYPE":"0"},{"LAUNCH_DATE":"2021-09-14","RCS_SIZE":"LARGE","TIME_SYSTEM":"UTC","REF_FRAME":"TEME","PERIOD":"91.737","MEAN_MOTION":"15.69709852","MEAN_MOTION_DOT":"0.00063176","PERIAPSIS":"357.287","EPHEMERIS_TYPE":"0","GP_ID":"188200880","ARG_OF_PERICENTER":"295.3943","NORAD_CAT_ID":"49176","OBJECT_ID":"2021-082AY","TLE_LINE2":"2 49176  69.9996   7.4393 0003625 295.3943 254.2838 15.69709852  3663","MEAN_ELEMENT_THEORY":"SGP4","SITE":"AFWTR","CLASSIFICATION_TYPE":"U","EPOCH":"2021-10-26T14:00:04.000032","ECCENTRICITY":"0.00036250","OBJECT_NAME":"STARLINK-3069","RA_OF_ASC_NODE":"7.4393","MEAN_ANOMALY":"254.2838","OBJECT_TYPE":"PAYLOAD","CENTER_NAME":"EARTH","COUNTRY_CODE":"US","DECAY_DATE":null,"BSTAR":"0.00052785000000","SEMIMAJOR_AXIS":"6737.864","TLE_LINE1":"1 49176U 21082AY  21299.58337963  .00063176  00000-0  52785-3 0  9990","INCLINATION":"69.9996","FILE":"3184921","MEAN_MOTION_DDOT":"0.0000000000000","REV_AT_EPOCH":"366","APOAPSIS":"362.172","ELEMENT_SET_NO":"999"},{"MEAN_ANOMALY":"248.1482","RA_OF_ASC_NODE":"7.4477","TLE_LINE2":"2 49177  69.9990   7.4477 0003870 295.0081 248.1482 15.69821653  3664","OBJECT_NAME":"STARLINK-3103","ECCENTRICITY":"0.00038700","CLASSIFICATION_TYPE":"U","EPOCH":"2021-10-26T14:00:04.000032","SITE":"AFWTR","MEAN_ELEMENT_THEORY":"SGP4","FILE":"3184921","INCLINATION":"69.9990","MEAN_MOTION_DDOT":"0.0000000000000","REV_AT_EPOCH":"366","ELEMENT_SET_NO":"999","APOAPSIS":"362.017","COUNTRY_CODE":"US","DECAY_DATE":null,"CENTER_NAME":"EARTH","OBJECT_TYPE":"PAYLOAD","TLE_LINE1":"1 49177U 21082AZ  21299.58337963 -.00047959  00000-0 -40101-3 0  9993","BSTAR":"-0.00040101000000","SEMIMAJOR_AXIS":"6737.544","PERIOD":"91.730","REF_FRAME":"TEME","MEAN_MOTION_DOT":"-0.00047959","MEAN_MOTION":"15.69821653","TIME_SYSTEM":"UTC","RCS_SIZE":"LARGE","LAUNCH_DATE":"2021-09-14","GP_ID":"188200996","ARG_OF_PERICENTER":"295.0081","OBJECT_ID":"2021-082AZ","NORAD_CAT_ID":"49177","EPHEMERIS_TYPE":"0","PERIAPSIS":"356.802"},{"ECCENTRICITY":"0.00035010","CLASSIFICATION_TYPE":"U","EPOCH":"2021-10-26T22:00:00.999936","MEAN_ELEMENT_THEORY":"SGP4","SITE":"AFWTR","OBJECT_NAME":"STARLINK-3086","TLE_LINE2":"2 49178  69.9991   6.5049 0003501 288.4181 342.0570 15.69740636  7981","RA_OF_ASC_NODE":"6.5049","MEAN_ANOMALY":"342.0570","SEMIMAJOR_AXIS":"6737.776","BSTAR":"-0.00037764000000","TLE_LINE1":"1 49178U 21082BA  21299.91667824 -.00045038  00000-0 -37764-3 0  9990","CENTER_NAME":"EARTH","OBJECT_TYPE":"PAYLOAD","COUNTRY_CODE":"US","DECAY_DATE":null,"ELEMENT_SET_NO":"999","APOAPSIS":"362.000","FILE":"3185118","INCLINATION":"69.9991","MEAN_MOTION_DDOT":"0.0000000000000","REV_AT_EPOCH":"798","RCS_SIZE":"LARGE","TIME_SYSTEM":"UTC","LAUNCH_DATE":"2021-09-14","MEAN_MOTION":"15.69740636","MEAN_MOTION_DOT":"-0.00045038","REF_FRAME":"TEME","PERIOD":"91.735","EPHEMERIS_TYPE":"0","PERIAPSIS":"357.282","ARG_OF_PERICENTER":"288.4181","OBJECT_ID":"2021-082BA","NORAD_CAT_ID":"49178","GP_ID":"188204911"},{"APOAPSIS":"362.337","ELEMENT_SET_NO":"999","REV_AT_EPOCH":"682","FILE":"3185120","MEAN_MOTION_DDOT":"0.0000000000000","INCLINATION":"70.0006","TLE_LINE1":"1 49179U 21082BB  21299.91667824 -.00023968  00000-0 -19963-3 0  9990","BSTAR":"-0.00019963000000","SEMIMAJOR_AXIS":"6737.784","DECAY_DATE":null,"COUNTRY_CODE":"US","OBJECT_TYPE":"PAYLOAD","CENTER_NAME":"EARTH","MEAN_ANOMALY":"340.9569","RA_OF_ASC_NODE":"6.5082","OBJECT_NAME":"STARLINK-3043","MEAN_ELEMENT_THEORY":"SGP4","SITE":"AFWTR","EPOCH":"2021-10-26T22:00:00.999936","CLASSIFICATION_TYPE":"U","ECCENTRICITY":"0.00039900","TLE_LINE2":"2 49179  70.0006   6.5082 0003990 287.4326 340.9569 15.69737849  6820","NORAD_CAT_ID":"49179","OBJECT_ID":"2021-082BB","ARG_OF_PERICENTER":"287.4326","GP_ID":"188204938","PERIAPSIS":"356.961","EPHEMERIS_TYPE":"0","MEAN_MOTION_DOT":"-0.00023968","MEAN_MOTION":"15.69737849","PERIOD":"91.735","REF_FRAME":"TEME","LAUNCH_DATE":"2021-09-14","TIME_SYSTEM":"UTC","RCS_SIZE":"LARGE"},{"OBJECT_ID":"2021-082BC","ARG_OF_PERICENTER":"290.0598","NORAD_CAT_ID":"49180","GP_ID":"188205103","PERIAPSIS":"357.197","EPHEMERIS_TYPE":"0","MEAN_MOTION":"15.69730491","MEAN_MOTION_DOT":"0.00005348","PERIOD":"91.735","REF_FRAME":"TEME","LAUNCH_DATE":"2021-09-14","RCS_SIZE":"LARGE","TIME_SYSTEM":"UTC","APOAPSIS":"362.144","ELEMENT_SET_NO":"999","REV_AT_EPOCH":"799","FILE":"3185120","MEAN_MOTION_DDOT":"0.0000000000000","INCLINATION":"69.9990","BSTAR":"0.00004657900000","SEMIMAJOR_AXIS":"6737.805","TLE_LINE1":"1 49180U 21082BC  21299.91667824  .00005348  00000-0  46579-4 0  9996","OBJECT_TYPE":"PAYLOAD","CENTER_NAME":"EARTH","DECAY_DATE":null,"COUNTRY_CODE":"US","RA_OF_ASC_NODE":"6.4995","MEAN_ANOMALY":"344.6812","SITE":"AFWTR","MEAN_ELEMENT_THEORY":"SGP4","ECCENTRICITY":"0.00036710","CLASSIFICATION_TYPE":"U","EPOCH":"2021-10-26T22:00:00.999936","OBJECT_NAME":"STARLINK-3050","TLE_LINE2":"2 49180  69.9990   6.4995 0003671 290.0598 344.6812 15.69730491  7997"},{"MEAN_ANOMALY":"345.0322","RA_OF_ASC_NODE":"6.4960","OBJECT_NAME":"STARLINK-3059","CLASSIFICATION_TYPE":"U","EPOCH":"2021-10-26T22:00:00.999936","ECCENTRICITY":"0.00037460","MEAN_ELEMENT_THEORY":"SGP4","SITE":"AFWTR","TLE_LINE2":"2 49181  70.0001   6.4960 0003746 291.8195 345.0322 15.69738579  7997","ELEMENT_SET_NO":"999","APOAPSIS":"362.171","FILE":"3185120","MEAN_MOTION_DDOT":"0.0000000000000","INCLINATION":"70.0001","REV_AT_EPOCH":"799","TLE_LINE1":"1 49181U 21082BD  21299.91667824 -.00024459  00000-0 -20378-3 0  9991","SEMIMAJOR_AXIS":"6737.782","BSTAR":"-0.00020378000000","DECAY_DATE":null,"COUNTRY_CODE":"US","CENTER_NAME":"EARTH","OBJECT_TYPE":"PAYLOAD","MEAN_MOTION_DOT":"-0.00024459","MEAN_MOTION":"15.69738579","REF_FRAME":"TEME","PERIOD":"91.735","RCS_SIZE":"LARGE","TIME_SYSTEM":"UTC","LAUNCH_DATE":"2021-09-14","OBJECT_ID":"2021-082BD","NORAD_CAT_ID":"49181","ARG_OF_PERICENTER":"291.8195","GP_ID":"188204940","EPHEMERIS_TYPE":"0","PERIAPSIS":"357.123"}];
